STARLINK-31972          
1 59923U 24106B   26068.11429224 -.00004209  00000+0 -14339-3 0  9997
2 59923  43.0090 335.8745 0003073 262.8714  97.1788 15.27594941100484
FLOCK 4G-3              
1 62639U 25009AG  26068.80174065  .00011494  00000+0  43389-3 0  9993
2 62639  97.4062 151.4068 0001320 293.2042  66.9058 15.27179310 63727
